HELIOS 1B               
1 25977U 99064A   21105.45878013  .00000065  00000-0  15283-4 0  9997
2 25977  98.3121 277.5095 0002551  91.9446 268.2058 14.82546594419864
TERRA                   
1 25994U 99068A   21105.61099844  .00000067  00000-0  24825-4 0  9999
2 25994  98.1789 181.1756 0001272 100.1916  10.0764 14.57123237134193
SL-16 R/B               
1 26070U 00006B   21105.55994637 -.00000286  00000-0 -12196-3 0  9998
2 26070  71.0014 258.4063 0015731  16.8454 343.3188 14.15472422 95380
MTI                     
1 26102U 00014A   21105.46226080  .00008457  00000-0  10653-3 0  9995
2 26102  97.4713   8.7432 0006128 174.0803 186.0661 15.59881324171528
TITAN 4B R/B            
1 26474U 00047B   21105.51349245  .00000148  00000-0  23611-4 0  9996
2 26474  67.9938 324.1561 0059735 228.6619 130.9376 14.96122299124429
ENVISAT                 
1 27386U 02009A   21105.55609653  .00000024  00000-0  21278-4 0  9995
2 27386  98.1480 102.8300 0001377  87.5122  22.2771 14.38020938  1960
IDEFIX & ARIANE 42P R/B 
1 27422U 02021B   21105.45493737  .00000014  00000-0  22040-4 0  9990
2 27422  98.3966  60.7098 0013349  61.5007 298.7518 14.29314777988302
AQUA                    
1 27424U 02022A   21105.57481434  .00000201  00000-0  54718-4 0  9992
2 27424  98.2051  47.8168 0002285 100.2030  73.1003 14.57112608  7874
CZ-4B R/B               
1 27432U 02024C   21105.61523887 -.00000040  00000-0  28955-5 0  9994
2 27432  99.0890 118.9606 0051148  44.9123  63.0990 14.14106634976355
MIDORI II (ADEOS-II)    
1 27597U 02056A   21105.57191757  .00000030  00000-0  29872-4 0  9999
2 27597  98.5593  52.1615 0001369 126.8393 233.2914 14.27492984954914
H-2A R/B                
1 27601U 02056E   21105.60057190 -.00000042  00000-0 -93547-6 0  9998
2 27601  98.1962 131.3060 0073392  97.2774  14.8280 14.31990622957930
CZ-4B R/B               
1 28059U 03049C   21105.50557268  .00000033  00000-0  19931-4 0  9990
2 28059  98.4933  31.5057 0049021 295.9475  63.6673 14.52644967926668
CZ-2C R/B               
1 28222U 04012C   21105.52321257  .00000683  00000-0  44137-4 0  9999
2 28222  97.7217  75.7240 0048284  77.0653  40.2087 15.10797493931639
SL-16 R/B               
1 28353U 04021B   21105.50955297  .00000022  00000-0  36568-4 0  9995
2 28353  71.0044  25.8226 0007162 247.4227 112.6138 14.14247811869848
CZ-4B R/B               
1 28415U 04035C   21105.55875314  .00000038  00000-0  67403-5 0  9995
2 28415  97.5724 149.1275 0052409  43.3672 317.1661 15.07077151909131
CZ-2C R/B               
1 28480U 04046B   21105.54973596  .00000035  00000-0  28030-4 0  9998
2 28480  98.0541 122.6156 0142885  50.6044  60.6876 14.25749395853469
ARIANE 5 R/B            
1 28499U 04049H   21105.56132920  .00000057  00000-0  14430-4 0  9994
2 28499  98.0630 214.5018 0092407  17.7989 352.7709 14.80109409880784
CZ-2D R/B               
1 28738U 05024B   21105.58876983  .00000615  00000-0  39069-4 0  9995
2 28738  97.3652 123.8388 0010836 212.4468 147.6098 15.12346243867063
SUZAKU (ASTRO-EII)      
1 28773U 05025A   21105.58840166  .00001605  00000-0  72117-4 0  9990
2 28773  31.3808 211.1811 0004559   9.2176 350.8555 15.18268685869908
ALOS (DAICHI)           
1 28931U 06002A   21105.49126733  .00000110  00000-0  30108-4 0  9993
2 28931  97.8812  83.0080 0000699 103.8471 256.2799 14.62822640811855
H-2A R/B                
1 28932U 06002B   21105.58242684  .00000503  00000-0  51754-4 0  9994
2 28932  98.3314 118.9153 0089422  53.8032  58.6050 14.92505601826203
AKARI (ASTRO-F)         
1 28939U 06005A   21105.54704182  .00005918  00000-0  14853-3 0  9999
2 28939  98.2478 121.2732 0087772 347.0020  12.8959 15.36557489827246
RESURS-DK 1             
1 29228U 06021A   21105.51039608  .00000099  00000-0  14731-4 0  9991
2 29228  69.9342 138.9781 0005669 324.3859  35.6923 15.02672102818118
GENESIS 1               
1 29252U 06029A   21105.53549497  .00000958  00000-0  55454-4 0  9991
2 29252  64.5227  33.2554 0037370 331.7916  28.1182 15.18581270813967
CZ-4B R/B               
1 29507U 06046C   21105.55307745  .00001077  00000-0  87951-4 0  9993
2 29507  97.7273 131.7720 0046522 227.3403 132.3897 15.00767532790679
CZ-2C R/B               
1 31114U 07010B   21105.51983658 -.00000030  00000-0  42893-5 0  9997
2 31114  98.2363 303.6465 0060896 106.0734 254.7161 14.19355938725851
COSMO-SKYMED 1          
1 31598U 07023A   21105.51991095 -.00000278  00000-0 -28346-4 0  9992
2 31598  97.8893 290.3043 0001588  92.6731 267.4664 14.82154313749572
GENESIS 2               
1 31789U 07028A   21105.33197781  .00000459  00000-0  32740-4 0  9991
2 31789  64.5053  76.1845 0016547 205.7444 154.2857 15.17713152760955
COSMOS 2428             
1 31792U 07029A   21105.43911567  .00000167  00000-0  11719-3 0  9991
2 31792  70.8957 358.4090 0008510 310.8450  49.1932 14.12248571711411
SL-16 R/B               
1 31793U 07029B   21105.41528799  .00000293  00000-0  17760-3 0  9993
2 31793  70.9762 332.0466 0002068 253.0239 280.3492 14.14443013712351
KORONAS-FOTON           
1 33504U 09003A   21105.58460061  .00000472  00000-0  22868-4 0  9999
2 33504  82.4387 282.1287 0017827 317.0604  42.9236 15.15934189673148
H-2A R/B                
1 38341U 12025E   21105.49392897  .00000107  00000-0  20085-4 0  9996
2 38341  98.5265 286.6743 0054970 342.9953  16.9416 14.84202878482243
CUSAT 2 & FALCON 9 R/B  
1 39271U 13055G   21105.60450362  .00006704  00000-0  15781-3 0  9993
2 39271  80.9622 301.1208 0572611 339.2461  18.6289 14.51868671394519
SL-4 R/B                
1 39679U 14021B   21105.52075560  .00000417  00000-0  37829-4 0  9996
2 39679  51.6159 145.1899 0169934 272.8680  85.2854 15.06878687384569
ALOS-2                  
1 39766U 14029A   21105.55945849 -.00000466  00000-0 -55567-4 0  9995
2 39766  97.9190 203.8236 0001632  91.4482 268.6917 14.79468370372361
CZ-2C R/B               
1 40306U 14071B   21105.48751372  .00006147  00000-0  12013-3 0  9990
2 40306  97.3656  61.8512 0015625 138.2674 221.9771 15.47707815360546
SL-27 R/B               
1 40354U 14084B   21105.50776931  .00001052  00000-0  26252-4 0  9999
2 40354  74.7355 122.8963 0036155 161.7822 198.4695 15.40955323354648
YAOGAN 29               
1 41038U 15069A   21105.41801225  .00000033  00000-0  11222-4 0  9997
2 41038  98.0364  99.3272 0001767  52.9315 307.2071 14.80496937290952
ASTRO-H (HITOMI)        
1 41337U 16012A   21105.56534110  .00000347  00000-0  21132-4 0  9999
2 41337  31.0048 254.0696 0012279 177.5417 182.5280 14.98818011282864
HXMT (HUIYAN)           
1 42758U 17034A   21105.57406762  .00000239  00000-0  28390-4 0  9997
2 42758  43.0172 178.2549 0007973 129.3026 334.7400 15.09136137211517
CZ-2C R/B               
1 43521U 18054D   21105.46575032  .00000724  00000-0  40691-4 0  9991
2 43521  35.1531 118.1977 0082712 262.3291  96.8023 15.11410403154866
AEOLUS                  
1 43600U 18066A   21105.55599952  .00045689  00000-0  17766-3 0  9994
2 43600  96.7181 113.3638 0005986 100.5503 259.6445 15.86997007153279
SAOCOM 1A               
1 43641U 18076A   21105.46081466 -.00000114  00000-0 -78143-5 0  9990
2 43641  97.8903 293.2851 0001491  86.2071 273.9185 14.82156217136333
CREW DRAGON DEMO-1 DEB  
1 44064U 19011B   21105.54777133  .00088711  00000-0  38996-3 0  9999
2 44064  51.6240 206.9541 0002238   2.3320 357.7693 15.83824043120416
SAOCOM 1B               
1 46265U 20059A   21105.42452110  .00000929  00000-0  12318-3 0  9995
2 46265  97.8883 292.3151 0001710  94.7958 265.3417 14.82157419 33727
CZ-2F R/B               
1 46390U 20063B   21105.26162536  .00102312  15218-4  25939-3 0  9994
2 46390  50.1991 307.5229 0009707 212.3451 147.6942 15.95260088 35351
2020-063G               
1 46395U 20063G   21104.64309438  .00021386  00000-0  93998-4 0  9995
2 46395  50.2039 318.1854 0009544 189.1968 170.8842 15.84435289 35155
